{
  "type": "FeatureCollection",
  "features": [
    {
      "type": "Feature",
      "properties": {
        "norad_id": 36744,
        "name": "COMS 1",
        "group": "weather",
        "lat": -2.9759542000816834,
        "lon": 34.91127703255785,
        "alt_km": 35787.94845177133,
        "timestamp": "2025-12-26T11:25:44.865961+00:00",
        "meta_object_name": "COMS 1",
        "meta_object_id": "2010-032A",
        "meta_epoch": "2025-12-25T12:42:15.782976",
        "meta_mean_motion": 1.00270082,
        "meta_eccentricity": 8.877e-05,
        "meta_inclination": 4.3689,
        "meta_ra_of_asc_node": 77.8525,
        "meta_arg_of_pericenter": 213.8569,
        "meta_mean_anomaly": 121.3153,
        "meta_ephemeris_type": 0,
        "meta_classification_type": "U",
        "meta_norad_cat_id": 36744,
        "meta_element_set_no": 999,
        "meta_rev_at_epoch": 4934,
        "meta_bstar": 0,
        "meta_mean_motion_dot": -3.24e-06,
        "meta_mean_motion_ddot": 0,
        "tle_line1": "1 36744U 10032A   25359.52934934 -.00000324  00000+0  00000+0 0  9991",
        "tle_line2": "2 36744   4.3689  77.8525 0000887 213.8569 121.3153  1.00270082 49343"
      },
      "geometry": {
        "type": "Point",
        "coordinates": [
          34.91127703255785,
          -2.9759542000816834
        ]
      }
    },
    {
      "type": "Feature",
      "properties": {
        "norad_id": 37214,
        "name": "FENGYUN 3B",
        "group": "weather",
        "lat": 59.46047677125617,
        "lon": -123.8898806967159,
        "alt_km": 851.8665196707088,
        "timestamp": "2025-12-26T11:25:44.865971+00:00",
        "meta_object_name": "FENGYUN 3B",
        "meta_object_id": "2010-059A",
        "meta_epoch": "2025-12-26T04:29:16.835424",
        "meta_mean_motion": 14.14794518,
        "meta_eccentricity": 0.0021466,
        "meta_inclination": 98.9886,
        "meta_ra_of_asc_node": 40.2568,
        "meta_arg_of_pericenter": 319.0314,
        "meta_mean_anomaly": 127.9246,
        "meta_ephemeris_type": 0,
        "meta_classification_type": "U",
        "meta_norad_cat_id": 37214,
        "meta_element_set_no": 999,
        "meta_rev_at_epoch": 78296,
        "meta_bstar": 0.0001968,
        "meta_mean_motion_dot": 3.35e-06,
        "meta_mean_motion_ddot": 0,
        "tle_line1": "1 37214U 10059A   25360.18700041  .00000335  00000+0  19680-3 0  9996",
        "tle_line2": "2 37214  98.9886  40.2568 0021466 319.0314 127.9246 14.14794518782969"
      },
      "geometry": {
        "type": "Point",
        "coordinates": [
          -123.8898806967159,
          59.46047677125617
        ]
      }
    },
    {
      "type": "Feature",
      "properties": {
        "norad_id": 37849,
        "name": "SUOMI NPP",
        "group": "weather",
        "lat": -13.032435146093963,
        "lon": 115.64481025702064,
        "alt_km": 831.7698544350551,
        "timestamp": "2025-12-26T11:25:44.865982+00:00",
        "meta_object_name": "SUOMI NPP",
        "meta_object_id": "2011-061A",
        "meta_epoch": "2025-12-22T15:10:21.732672",
        "meta_mean_motion": 14.19516903,
        "meta_eccentricity": 0.00024883,
        "meta_inclination": 98.7787,
        "meta_ra_of_asc_node": 293.8852,
        "meta_arg_of_pericenter": 103.0781,
        "meta_mean_anomaly": 257.0673,
        "meta_ephemeris_type": 0,
        "meta_classification_type": "U",
        "meta_norad_cat_id": 37849,
        "meta_element_set_no": 999,
        "meta_rev_at_epoch": 73339,
        "meta_bstar": 6.3406935e-05,
        "meta_mean_motion_dot": 8.9e-07,
        "meta_mean_motion_ddot": 0,
        "tle_line1": "1 37849U 11061A   25356.63219598  .00000089  00000+0  63407-4 0  9994",
        "tle_line2": "2 37849  98.7787 293.8852 0002488 103.0781 257.0673 14.19516903733392"
      },
      "geometry": {
        "type": "Point",
        "coordinates": [
          115.64481025702064,
          -13.032435146093963
        ]
      }
    },
    {
      "type": "Feature",
      "properties": {
        "norad_id": 38552,
        "name": "METEOSAT-10 (MSG-3)",
        "group": "weather",
        "lat": -1.829284054516641,
        "lon": -93.15998734166844,
        "alt_km": 35784.61920906838,
        "timestamp": "2025-12-26T11:25:44.865992+00:00",
        "meta_object_name": "METEOSAT-10 (MSG-3)",
        "meta_object_id": "2012-035B",
        "meta_epoch": "2025-12-25T19:55:02.807904",
        "meta_mean_motion": 1.00266624,
        "meta_eccentricity": 0.0001479,
        "meta_inclination": 4.2575,
        "meta_ra_of_asc_node": 61.6862,
        "meta_arg_of_pericenter": 265.3349,
        "meta_mean_anomaly": 66.5982,
        "meta_ephemeris_type": 0,
        "meta_classification_type": "U",
        "meta_norad_cat_id": 38552,
        "meta_element_set_no": 999,
        "meta_rev_at_epoch": 4911,
        "meta_bstar": 0,
        "meta_mean_motion_dot": 1.4e-07,
        "meta_mean_motion_ddot": 0,
        "tle_line1": "1 38552U 12035B   25359.82989361  .00000014  00000+0  00000+0 0  9997",
        "tle_line2": "2 38552   4.2575  61.6862 0001479 265.3349  66.5982  1.00266624 49118"
      },
      "geometry": {
        "type": "Point",
        "coordinates": [
          -93.15998734166844,
          -1.829284054516641
        ]
      }
    },
    {
      "type": "Feature",
      "properties": {
        "norad_id": 38771,
        "name": "METOP-B",
        "group": "weather",
        "lat": 40.59137377186916,
        "lon": -122.27966716435412,
        "alt_km": 815.1607537219534,
        "timestamp": "2025-12-26T11:25:44.866002+00:00",
        "meta_object_name": "METOP-B",
        "meta_object_id": "2012-049A",
        "meta_epoch": "2025-12-26T02:19:54.086592",
        "meta_mean_motion": 14.21413292,
        "meta_eccentricity": 0.0003289,
        "meta_inclination": 98.678,
        "meta_ra_of_asc_node": 49.8284,
        "meta_arg_of_pericenter": 116.4148,
        "meta_mean_anomaly": 243.7367,
        "meta_ephemeris_type": 0,
        "meta_classification_type": "U",
        "meta_norad_cat_id": 38771,
        "meta_element_set_no": 999,
        "meta_rev_at_epoch": 68867,
        "meta_bstar": 7.8324e-05,
        "meta_mean_motion_dot": 1.28e-06,
        "meta_mean_motion_ddot": 0,
        "tle_line1": "1 38771U 12049A   25360.09715378  .00000128  00000+0  78324-4 0  9996",
        "tle_line2": "2 38771  98.6780  49.8284 0003289 116.4148 243.7367 14.21413292688674"
      },
      "geometry": {
        "type": "Point",
        "coordinates": [
          -122.27966716435412,
          40.59137377186916
        ]
      }
    },
    {
      "type": "Feature",
      "properties": {
        "norad_id": 39216,
        "name": "INSAT-3D",
        "group": "weather",
        "lat": -1.102014940415211,
        "lon": 36.22323138652264,
        "alt_km": 35793.10230729926,
        "timestamp": "2025-12-26T11:25:44.866012+00:00",
        "meta_object_name": "INSAT-3D",
        "meta_object_id": "2013-038B",
        "meta_epoch": "2025-12-26T00:52:38.586144",
        "meta_mean_motion": 1.00273672,
        "meta_eccentricity": 0.0001945,
        "meta_inclination": 1.4773,
        "meta_ra_of_asc_node": 84.8465,
        "meta_arg_of_pericenter": 157.8171,
        "meta_mean_anomaly": 354.8337,
        "meta_ephemeris_type": 0,
        "meta_classification_type": "U",
        "meta_norad_cat_id": 39216,
        "meta_element_set_no": 999,
        "meta_rev_at_epoch": 4534,
        "meta_bstar": 0,
        "meta_mean_motion_dot": -3.17e-06,
        "meta_mean_motion_ddot": 0,
        "tle_line1": "1 39216U 13038B   25360.03655771 -.00000317  00000+0  00000+0 0  9996",
        "tle_line2": "2 39216   1.4773  84.8465 0001945 157.8171 354.8337  1.00273672 45346"
      },
      "geometry": {
        "type": "Point",
        "coordinates": [
          36.22323138652264,
          -1.102014940415211
        ]
      }
    },
    {
      "type": "Feature",
      "properties": {
        "norad_id": 39260,
        "name": "FENGYUN 3C",
        "group": "weather",
        "lat": 74.28356883114884,
        "lon": -170.5055697197461,
        "alt_km": 826.3165966168799,
        "timestamp": "2025-12-26T11:25:44.866022+00:00",
        "meta_object_name": "FENGYUN 3C",
        "meta_object_id": "2013-052A",
        "meta_epoch": "2025-12-26T04:09:28.459584",
        "meta_mean_motion": 14.15700261,
        "meta_eccentricity": 0.0015037,
        "meta_inclination": 98.478,
        "meta_ra_of_asc_node": 337.1977,
        "meta_arg_of_pericenter": 157.3771,
        "meta_mean_anomaly": 202.8069,
        "meta_ephemeris_type": 0,
        "meta_classification_type": "U",
        "meta_norad_cat_id": 39260,
        "meta_element_set_no": 999,
        "meta_rev_at_epoch": 63408,
        "meta_bstar": 7.1585e-05,
        "meta_mean_motion_dot": 9.9e-07,
        "meta_mean_motion_ddot": 0,
        "tle_line1": "1 39260U 13052A   25360.17324606  .00000099  00000+0  71585-4 0  9993",
        "tle_line2": "2 39260  98.4780 337.1977 0015037 157.3771 202.8069 14.15700261634087"
      },
      "geometry": {
        "type": "Point",
        "coordinates": [
          -170.5055697197461,
          74.28356883114884
        ]
      }
    }
  ]
}